[
    {
      "id" : 0,
      "title" : "The Shawshank Redemption",
      "genre" : [
        "Crime",
        "Drama"
      ],
      "imdb" : "http://www.imdb.com/title/tt0111161",
      "sellerName" : "Henry Mckenzie",
      "contact" : "317-555-0138",
      "zipCode" : 37128,
      "rating" : "R"
    },
    {
      "id" : 1,
      "title" : "The Godfather",
      "genre" : [
        "Crime",
        "Drama"
      ],
      "imdb" : "http://www.imdb.com/title/tt0068646",
      "sellerName" : "Lola Rodriquez",
      "contact" : "360-555-0142",
      "zipCode" : 65015,
      "rating" : "R"
    },
    {
      "id" : 2,
      "title" : "The Godfather: Part II",
      "genre" : [
        "Crime",
        "Drama"
      ],
      "imdb" : "http://www.imdb.com/title/tt0071562",
      "sellerName" : "Mabel Bryan",
      "contact" : "202-555-0114",
      "zipCode" : 23693,
      "rating" : "PG-13"
    },
    {
      "id" : 3,
      "title" : "The Dark Knight",
      "genre" : [
        "Action",
        "Crime",
        "Drama"
      ],
      "imdb" : "http://www.imdb.com/title/tt0468569",
      "sellerName" : "Ebony Crawford",
      "contact" : "202-555-0188",
      "zipCode" : 7652,
      "rating" : "PG"
    },
    {
      "id" : 4,
      "title" : "12 Angry Men",
      "genre" : [
        "Crime",
        "Drama"
      ],
      "imdb" : "http://www.imdb.com/title/tt0050083",
      "sellerName" : "Linda Walsh",
      "contact" : "608-555-0121",
      "zipCode" : 27603,
      "rating" : "R"
    },
    {
      "id" : 5,
      "title" : "Schindler's List",
      "genre" : [
        "Biography",
        "Drama",
        "History"
      ],
      "imdb" : "http://www.imdb.com/title/tt0108052",
      "sellerName" : "Elbert Ross",
      "contact" : "608-555-0100",
      "zipCode" : 48504,
      "rating" : "PG-13"
    },
    {
      "id" : 6,
      "title" : "Pulp Fiction",
      "genre" : [
        "Crime",
        "Drama"
      ],
      "imdb" : "http://www.imdb.com/title/tt0110912",
      "sellerName" : "Carla Wheeler",
      "contact" : "615-555-0100",
      "zipCode" : 11423,
      "rating" : "G"
    },
    {
      "id" : 7,
      "title" : "The Lord of the Rings: The Return of the King",
      "genre" : [
        "Adventure",
        "Drama",
        "Fantasy"
      ],
      "imdb" : "http://www.imdb.com/title/tt0167260",
      "sellerName" : "Inez Ruiz",
      "contact" : "615-555-0131",
      "zipCode" : 1545,
      "rating" : "R"
    },
    {
      "id" : 8,
      "title" : "The Good, the Bad, and the Ugly",
      "genre" : "Western",
      "imdb" : "http://www.imdb.com/title/tt0060196",
      "sellerName" : "Daniel Roy",
      "contact" : "601-555-0183",
      "zipCode" : 30906,
      "rating" : "R"
    },
    {
      "id" : 9,
      "title" : "Fight Club",
      "genre" : "Drama",
      "imdb" : "http://www.imdb.com/title/tt0137523",
      "sellerName" : "Dale Coleman",
      "contact" : "601-555-0124",
      "zipCode" : 21921,
      "rating" : "R"
    },
    {
      "id" : 10,
      "title" : "Forest Gump",
      "genre" : [
        "Comedy",
        "Drama"
      ],
      "imdb" : "http://www.imdb.com/title/tt0109830",
      "sellerName" : "Cecelia Fernandez",
      "contact" : "617-555-0136",
      "zipCode" : 59404,
      "rating" : "PG-13"
    },
    {
      "id" : 11,
      "title" : "Spirited Away",
      "genre" : [
        "Animation",
        "Adventure",
        "Family"
      ],
      "imdb" : "http://www.imdb.com/title/tt0245429",
      "sellerName" : "Willard Gilbert",
      "contact" : "617-555-0124",
      "zipCode" : 6851,
      "rating" : "PG"
    },
    {
      "id" : 12,
      "title" : "The Great Dictator",
      "genre" : [
        "Comedy",
        "Drama",
        "War"
      ],
      "imdb" : "http://www.imdb.com/title/tt0032553",
      "sellerName" : "Dale Jensen",
      "contact" : "785-555-0120",
      "zipCode" : 48197,
      "rating" : "G"
    },
    {
      "id" : 13,
      "title" : "Inception",
      "genre" : [
        "Action",
        "Adventure",
        "Sci-Fi"
      ],
      "imdb" : "http://www.imdb.com/title/tt1375666",
      "sellerName" : "Fannie Payne",
      "contact" : "410-555-0146",
      "zipCode" : 2062,
      "rating" : "PG-13"
    },
    {
      "id" : 14,
      "title" : "The Matrix",
      "genre" : [
        "Action",
        "Sci-Fi"
      ],
      "imdb" : "http://www.imdb.com/title/tt0133093",
      "sellerName" : "Penny Ferguson",
      "contact" : "410-555-0180",
      "zipCode" : 11795,
      "rating" : "R"
    }
]
